ONEWEB-0687             
1 61595U 24188B   25080.78506747  .00003465  00000+0  41412-3 0  9990
2 61595  86.5709 104.9874 0006435  63.7276 296.4608 14.83905509 25584
ONEWEB-0688             
1 61596U 24188C   25080.78827678  .00003472  00000+0  41503-3 0  9999
2 61596  86.5719 105.0131 0006048  66.0782 294.1074 14.83908848 25583
ONEWEB-0689             
1 61597U 24188D   25081.25001157  .00000015  00000+0  00000+0 0  9992
2 61597  87.5683 111.4494 0004848  64.1938  37.9003 13.47611588 23300
ONEWEB-0690             
1 61598U 24188E   25081.25001157  .00000016  00000+0  00000+0 0  9994
2 61598  87.7253 111.4267 0009490  73.8022 226.7305 13.82910874 23406
ONEWEB-0691             
1 61599U 24188F   25081.25001157  .00000015  00000+0  00000+0 0  9994
2 61599  87.5849 111.4437 0006999  55.9600 181.5413 13.51398193 23474
ONEWEB-0692             
1 61600U 24188G   25081.25001157  .00000015  00000+0  00000+0 0  9997
2 61600  87.5725 111.4555 0005091  82.5080 151.4631 13.49922597 23400
ONEWEB-0693             
1 61601U 24188H   25080.85652356  .00003840  00000+0  45930-3 0  9990
2 61601  86.5633 104.8334 0005202  85.5414 274.6404 14.83910538 25596
ONEWEB-0695             
1 61602U 24188J   25081.25001157  .00000015  00000+0  00000+0 0  9999
2 61602  87.5494 111.4814 0004922  70.4469 354.8018 13.50065027 23431
